0 METEOSAT 5 (MOP 2)
1 21140U 91015B   13280.93875183 -.00000057  00000-0  10000-3 0  7065
2 21140 013.8279 031.7592 0008901 141.3240 218.7385 00.98451222 84571
0 METEOSAT 5 (MOP 2)
1 21140U 91015B   13281.95444215 -.00000086  00000-0  10000-3 0  7079
2 21140 013.8293 031.7479 0008904 141.0221 219.0412 00.98451669 84581
0 METEOSAT 5 (MOP 2)
1 21140U 91015B   13281.95444215 -.00000086  00000-0  10000-3 0  7080
2 21140 013.8293 031.7479 0008904 141.0221 219.0412 00.98451669 84581
0 METEOSAT 5 (MOP 2)
1 21140U 91015B   13281.95444215 -.00000086  00000-0  10000-3 0  7091
2 21140 013.8293 031.7479 0008904 141.0221 219.0412 00.98451669 84581
0 METEOSAT 5 (MOP 2)
1 21140U 91015B   13286.01714565 -.00000193  00000-0  10000-3 0  7102
2 21140 013.8350 031.7030 0008792 142.8078 217.2412 00.98452807 84622
0 METEOSAT 5 (MOP 2)
1 21140U 91015B   13286.01714565 -.00000193  00000-0  10000-3 0  7113
2 21140 013.8350 031.7030 0008792 142.8078 217.2412 00.98452807 84622
0 METEOSAT 5 (MOP 2)
1 21140U 91015B   13286.01714565 -.00000193  00000-0  10000-3 0  7124
2 21140 013.8350 031.7030 0008792 142.8078 217.2412 00.98452807 84622
0 METEOSAT 5 (MOP 2)
1 21140U 91015B   13286.01717515 -.00000193  00000-0  10000-3 0  7133
2 21140 013.8348 031.7034 0008815 140.4841 219.5861 00.98453077 84624
0 METEOSAT 5 (MOP 2)
1 21140U 91015B   13286.01717515 -.00000193  00000-0  10000-3 0  7144
2 21140 013.8348 031.7034 0008815 140.4841 219.5861 00.98453077 84624
0 METEOSAT 5 (MOP 2)
1 21140U 91015B   13288.04846278 -.00000222  00000-0  10000-3 0  7152
2 21140 013.8378 031.6800 0008996 140.5025 219.5454 00.98453252 84647
0 METEOSAT 5 (MOP 2)
1 21140U 91015B   13288.04846278 -.00000222  00000-0  10000-3 0  7163
2 21140 013.8378 031.6800 0008996 140.5025 219.5454 00.98453252 84647
0 METEOSAT 5 (MOP 2)
1 21140U 91015B   13289.06412911 -.00000228  00000-0  10000-3 0  7176
2 21140 013.8392 031.6687 0009025 140.6485 219.3980 00.98453224 84653
0 METEOSAT 5 (MOP 2)
1 21140U 91015B   13290.07978202 -.00000228  00000-0  10000-3 0  7180
2 21140 013.8405 031.6575 0009097 142.0038 218.0327 00.98453082 84667
0 METEOSAT 5 (MOP 2)
1 21140U 91015B   13290.07978202 -.00000228  00000-0  10000-3 0  7191
2 21140 013.8405 031.6575 0009097 142.0038 218.0327 00.98453082 84667
0 METEOSAT 5 (MOP 2)
1 21140U 91015B   13290.07978202 -.00000228  00000-0  10000-3 0  7203
2 21140 013.8405 031.6575 0009097 142.0038 218.0327 00.98453082 84667
0 METEOSAT 5 (MOP 2)
1 21140U 91015B   13293.12678354 -.00000193  00000-0  10000-3 0  7219
2 21140 013.8447 031.6235 0009115 142.1051 217.9235 00.98452308 84692
0 METEOSAT 5 (MOP 2)
1 21140U 91015B   13293.12678354 -.00000193  00000-0  10000-3 0  7220
2 21140 013.8447 031.6235 0009115 142.1051 217.9235 00.98452308 84692
0 METEOSAT 5 (MOP 2)
1 21140U 91015B   13293.12678354 -.00000193  00000-0  10000-3 0  7231
2 21140 013.8447 031.6235 0009115 142.1051 217.9235 00.98452308 84692
0 METEOSAT 5 (MOP 2)
1 21140U 91015B   13294.14246961 -.00000172  00000-0  10000-3 0  7247
2 21140 013.8462 031.6124 0009157 143.7436 216.2836 00.98451943 84701
0 METEOSAT 5 (MOP 2)
1 21140U 91015B   13294.14246961 -.00000172  00000-0  10000-3 0  7258
2 21140 013.8462 031.6124 0009157 143.7436 216.2836 00.98451943 84701
0 METEOSAT 5 (MOP 2)
1 21140U 91015B   13294.14246961 -.00000172  00000-0  10000-3 0  7269
2 21140 013.8462 031.6124 0009157 143.7436 216.2836 00.98451943 84701
0 METEOSAT 5 (MOP 2)
1 21140U 91015B   13294.14246961 -.00000172  00000-0  10000-3 0  7270
2 21140 013.8462 031.6124 0009157 143.7436 216.2836 00.98451943 84701
0 METEOSAT 5 (MOP 2)
1 21140U 91015B   13294.14246961 -.00000172  00000-0  10000-3 0  7281
2 21140 013.8462 031.6124 0009157 143.7436 216.2836 00.98451943 84701
